CCSDS_OMM_VERS = 2.0
CREATION_DATE  = 
ORIGINATOR     = 

OBJECT_NAME    = HTV-X1
OBJECT_ID      = 2025-241A
CENTER_NAME    = EARTH
REF_FRAME      = TEME
TIME_SYSTEM    = UTC
MEAN_ELEMENT_THEORY = SGP/SGP4

EPOCH          = 2026-03-31T04:05:05.749152
MEAN_MOTION    = 15.32485858
ECCENTRICITY   = .0007217
INCLINATION    = 51.6380
RA_OF_ASC_NODE = 329.5427
ARG_OF_PERICENTER = 256.0151
MEAN_ANOMALY   = 104.0028

EPHEMERIS_TYPE = 0
CLASSIFICATION_TYPE = U
NORAD_CAT_ID   = 66174
ELEMENT_SET_NO = 999
REV_AT_EPOCH   = 2423
BSTAR          = .6694E-4
MEAN_MOTION_DOT = .176E-4
MEAN_MOTION_DDOT = 0

CCSDS_OMM_VERS = 2.0
CREATION_DATE  = 
ORIGINATOR     = 

OBJECT_NAME    = SZ-21 MODULE
OBJECT_ID      = 2025-246C
CENTER_NAME    = EARTH
REF_FRAME      = TEME
TIME_SYSTEM    = UTC
MEAN_ELEMENT_THEORY = SGP/SGP4

EPOCH          = 2026-03-31T00:13:46.141248
MEAN_MOTION    = 15.70237723
ECCENTRICITY   = .0002208
INCLINATION    = 41.4738
RA_OF_ASC_NODE = 71.9551
ARG_OF_PERICENTER = 216.3833
MEAN_ANOMALY   = 143.6860

EPHEMERIS_TYPE = 0
CLASSIFICATION_TYPE = U
NORAD_CAT_ID   = 66515
ELEMENT_SET_NO = 999
REV_AT_EPOCH   = 2142
BSTAR          = .40916E-3
MEAN_MOTION_DOT = .51196E-3
MEAN_MOTION_DDOT = 0

CCSDS_OMM_VERS = 2.0
CREATION_DATE  = 
ORIGINATOR     = 

OBJECT_NAME    = SHENZHOU-22
OBJECT_ID      = 2025-272A
CENTER_NAME    = EARTH
REF_FRAME      = TEME
TIME_SYSTEM    = UTC
MEAN_ELEMENT_THEORY = SGP/SGP4

EPOCH          = 2026-03-31T03:29:08.838816
MEAN_MOTION    = 15.61737938
ECCENTRICITY   = .0003732
INCLINATION    = 41.4666
RA_OF_ASC_NODE = 77.5044
ARG_OF_PERICENTER = 76.0668
MEAN_ANOMALY   = 284.0586

EPHEMERIS_TYPE = 0
CLASSIFICATION_TYPE = U
NORAD_CAT_ID   = 66645
ELEMENT_SET_NO = 999
REV_AT_EPOCH   = 28121
BSTAR          = .31487E-3
MEAN_MOTION_DOT = .27765E-3
MEAN_MOTION_DDOT = 0

CCSDS_OMM_VERS = 2.0
CREATION_DATE  = 
ORIGINATOR     = 

OBJECT_NAME    = SOYUZ-MS 28
OBJECT_ID      = 2025-275A
CENTER_NAME    = EARTH
REF_FRAME      = TEME
TIME_SYSTEM    = UTC
MEAN_ELEMENT_THEORY = SGP/SGP4

EPOCH          = 2026-03-31T03:11:39.798528
MEAN_MOTION    = 15.48671303
ECCENTRICITY   = .0006203
INCLINATION    = 51.6341
RA_OF_ASC_NODE = 326.3497
ARG_OF_PERICENTER = 253.7499
MEAN_ANOMALY   = 106.2807

EPHEMERIS_TYPE = 0
CLASSIFICATION_TYPE = U
NORAD_CAT_ID   = 66664
ELEMENT_SET_NO = 999
REV_AT_EPOCH   = 55973
BSTAR          = .21777E-3
MEAN_MOTION_DOT = .11434E-3
MEAN_MOTION_DDOT = 0

CCSDS_OMM_VERS = 2.0
CREATION_DATE  = 
ORIGINATOR     = 

OBJECT_NAME    = DUPLEX
OBJECT_ID      = 1998-067XS
CENTER_NAME    = EARTH
REF_FRAME      = TEME
TIME_SYSTEM    = UTC
MEAN_ELEMENT_THEORY = SGP/SGP4

EPOCH          = 2026-03-30T23:03:07.718400
MEAN_MOTION    = 15.57650066
ECCENTRICITY   = .000305
INCLINATION    = 51.6299
RA_OF_ASC_NODE = 322.9482
ARG_OF_PERICENTER = 209.9904
MEAN_ANOMALY   = 150.0914

EPHEMERIS_TYPE = 0
CLASSIFICATION_TYPE = U
NORAD_CAT_ID   = 66906
ELEMENT_SET_NO = 999
REV_AT_EPOCH   = 1844
BSTAR          = .4674E-3
MEAN_MOTION_DOT = .34903E-3
MEAN_MOTION_DDOT = 0

CCSDS_OMM_VERS = 2.0
CREATION_DATE  = 
ORIGINATOR     = 

OBJECT_NAME    = ISS OBJECT XT
OBJECT_ID      = 1998-067XT
CENTER_NAME    = EARTH
REF_FRAME      = TEME
TIME_SYSTEM    = UTC
MEAN_ELEMENT_THEORY = SGP/SGP4

EPOCH          = 2026-03-30T23:48:34.422048
MEAN_MOTION    = 15.77474142
ECCENTRICITY   = .0006496
INCLINATION    = 51.6233
RA_OF_ASC_NODE = 316.3688
ARG_OF_PERICENTER = 218.8764
MEAN_ANOMALY   = 141.1770

EPHEMERIS_TYPE = 0
CLASSIFICATION_TYPE = U
NORAD_CAT_ID   = 66907
ELEMENT_SET_NO = 999
REV_AT_EPOCH   = 1853
BSTAR          = .1525E-2
MEAN_MOTION_DOT = .26625E-2
MEAN_MOTION_DDOT = 0

CCSDS_OMM_VERS = 2.0
CREATION_DATE  = 
ORIGINATOR     = 

OBJECT_NAME    = ISS OBJECT XU
OBJECT_ID      = 1998-067XU
CENTER_NAME    = EARTH
REF_FRAME      = TEME
TIME_SYSTEM    = UTC
MEAN_ELEMENT_THEORY = SGP/SGP4

EPOCH          = 2026-03-30T23:42:35.964864
MEAN_MOTION    = 15.77741414
ECCENTRICITY   = .0006724
INCLINATION    = 51.6237
RA_OF_ASC_NODE = 316.3364
ARG_OF_PERICENTER = 218.1981
MEAN_ANOMALY   = 141.8543

EPHEMERIS_TYPE = 0
CLASSIFICATION_TYPE = U
NORAD_CAT_ID   = 66908
ELEMENT_SET_NO = 999
REV_AT_EPOCH   = 1853
BSTAR          = .15782E-2
MEAN_MOTION_DOT = .27931E-2
MEAN_MOTION_DDOT = 0

CCSDS_OMM_VERS = 2.0
CREATION_DATE  = 
ORIGINATOR     = 

OBJECT_NAME    = SILVERSAT
OBJECT_ID      = 1998-067XV
CENTER_NAME    = EARTH
REF_FRAME      = TEME
TIME_SYSTEM    = UTC
MEAN_ELEMENT_THEORY = SGP/SGP4

EPOCH          = 2026-03-30T23:56:13.358112
MEAN_MOTION    = 15.83552073
ECCENTRICITY   = .0007666
INCLINATION    = 51.6200
RA_OF_ASC_NODE = 314.8852
ARG_OF_PERICENTER = 225.3563
MEAN_ANOMALY   = 134.6816

EPHEMERIS_TYPE = 0
CLASSIFICATION_TYPE = U
NORAD_CAT_ID   = 66909
ELEMENT_SET_NO = 999
REV_AT_EPOCH   = 1855
BSTAR          = .17359E-2
MEAN_MOTION_DOT = .407567E-2
MEAN_MOTION_DDOT = 0

CCSDS_OMM_VERS = 2.0
CREATION_DATE  = 
ORIGINATOR     = 

OBJECT_NAME    = ISS OBJECT XW
OBJECT_ID      = 1998-067XW
CENTER_NAME    = EARTH
REF_FRAME      = TEME
TIME_SYSTEM    = UTC
MEAN_ELEMENT_THEORY = SGP/SGP4

EPOCH          = 2026-03-31T00:01:51.564000
MEAN_MOTION    = 15.75865069
ECCENTRICITY   = .000671
INCLINATION    = 51.6221
RA_OF_ASC_NODE = 316.4232
ARG_OF_PERICENTER = 215.2367
MEAN_ANOMALY   = 144.8190

EPHEMERIS_TYPE = 0
CLASSIFICATION_TYPE = U
NORAD_CAT_ID   = 66910
ELEMENT_SET_NO = 999
REV_AT_EPOCH   = 1853
BSTAR          = .14085E-2
MEAN_MOTION_DOT = .227945E-2
MEAN_MOTION_DDOT = 0

CCSDS_OMM_VERS = 2.0
CREATION_DATE  = 
ORIGINATOR     = 

OBJECT_NAME    = ISS OBJECT XX
OBJECT_ID      = 1998-067XX
CENTER_NAME    = EARTH
REF_FRAME      = TEME
TIME_SYSTEM    = UTC
MEAN_ELEMENT_THEORY = SGP/SGP4

EPOCH          = 2026-03-30T23:48:52.674048
MEAN_MOTION    = 15.91183694
ECCENTRICITY   = .0009699
INCLINATION    = 51.6173
RA_OF_ASC_NODE = 313.3117
ARG_OF_PERICENTER = 230.4896
MEAN_ANOMALY   = 129.5254

EPHEMERIS_TYPE = 0
CLASSIFICATION_TYPE = U
NORAD_CAT_ID   = 66911
ELEMENT_SET_NO = 999
REV_AT_EPOCH   = 1856
BSTAR          = .19754E-2
MEAN_MOTION_DOT = .643331E-2
MEAN_MOTION_DDOT = .17468E-3

CCSDS_OMM_VERS = 2.0
CREATION_DATE  = 
ORIGINATOR     = 

OBJECT_NAME    = ISS OBJECT XY
OBJECT_ID      = 1998-067XY
CENTER_NAME    = EARTH
REF_FRAME      = TEME
TIME_SYSTEM    = UTC
MEAN_ELEMENT_THEORY = SGP/SGP4

EPOCH          = 2026-03-31T00:36:52.628832
MEAN_MOTION    = 15.68176459
ECCENTRICITY   = .0004598
INCLINATION    = 51.6266
RA_OF_ASC_NODE = 318.8691
ARG_OF_PERICENTER = 214.4889
MEAN_ANOMALY   = 145.5809

EPHEMERIS_TYPE = 0
CLASSIFICATION_TYPE = U
NORAD_CAT_ID   = 66912
ELEMENT_SET_NO = 999
REV_AT_EPOCH   = 1849
BSTAR          = .11755E-2
MEAN_MOTION_DOT = .135589E-2
MEAN_MOTION_DDOT = 0

CCSDS_OMM_VERS = 2.0
CREATION_DATE  = 
ORIGINATOR     = 

OBJECT_NAME    = KNACKSAT-2
OBJECT_ID      = 1998-067XZ
CENTER_NAME    = EARTH
REF_FRAME      = TEME
TIME_SYSTEM    = UTC
MEAN_ELEMENT_THEORY = SGP/SGP4

EPOCH          = 2026-03-30T21:39:25.678656
MEAN_MOTION    = 15.53622032
ECCENTRICITY   = .0010183
INCLINATION    = 51.6321
RA_OF_ASC_NODE = 326.3110
ARG_OF_PERICENTER = 263.1970
MEAN_ANOMALY   = 96.7862

EPHEMERIS_TYPE = 0
CLASSIFICATION_TYPE = U
NORAD_CAT_ID   = 67683
ELEMENT_SET_NO = 999
REV_AT_EPOCH   = 808
BSTAR          = .75035E-3
MEAN_MOTION_DOT = .48681E-3
MEAN_MOTION_DDOT = 0

